[{"OBJECT_NAME":"KUIPER-00096","OBJECT_ID":"2025-171D","EPOCH":"2026-03-09T22:44:25.114560","MEAN_MOTION":14.79934013,"ECCENTRICITY":4.317e-5,"INCLINATION":51.8989,"RA_OF_ASC_NODE":156.9441,"ARG_OF_PERICENTER":82.7008,"MEAN_ANOMALY":277.4003,"EPHEMERIS_TYPE":0,"CLASSIFICATION_TYPE":"U","NORAD_CAT_ID":65135,"ELEMENT_SET_NO":999,"REV_AT_EPOCH":3293,"BSTAR":0.00019035525,"MEAN_MOTION_DOT":1.23e-5,"MEAN_MOTION_DDOT":0},{"OBJECT_NAME":"COSMOS 2251 DEB","OBJECT_ID":"1993-036KL","EPOCH":"2026-03-09T16:03:41.264640","MEAN_MOTION":14.81149967,"ECCENTRICITY":0.003246,"INCLINATION":74.0053,"RA_OF_ASC_NODE":70.3186,"ARG_OF_PERICENTER":235.3211,"MEAN_ANOMALY":124.4906,"EPHEMERIS_TYPE":0,"CLASSIFICATION_TYPE":"U","NORAD_CAT_ID":34115,"ELEMENT_SET_NO":999,"REV_AT_EPOCH":90698,"BSTAR":0.0011309643,"MEAN_MOTION_DOT":8.85e-5,"MEAN_MOTION_DDOT":0}]
